INTELSAT 906 (IS-906)   
1 27513U 02041A   26167.17525350  .00000008  00000+0  00000+0 0  9991
2 27513   5.8002  72.9349 0004606   6.1806 312.5671  1.00272749 87019
NIMIQ 2                 
1 27632U 02062A   26167.38702527 -.00000077  00000+0  00000+0 0  9999
2 27632   9.4448  56.9084 0005426  23.1127 214.7701  1.00271778 44177
USA 167                 
1 27691U 03008A   26167.40261609 -.00000005  00000+0  00000+0 0  9990
2 27691  10.9602  43.4170 0003908 311.8473 292.6485  1.00272428  6762
USA 169 (MILSTAR-2 4)   
1 27711U 03012A   26167.42984899 -.00000257  00000+0  00000+0 0  9992
2 27711  12.3485  29.8495 0100590   9.1249 172.6098  1.00273031 32948
ASIASAT 4               
1 27718U 03014A   26167.60914874 -.00000227  00000+0  00000+0 0  9994
2 27718   4.7027  75.7552 0002990  14.3509 181.6021  1.00270399 45290
HELLAS-SAT 2            
1 27811U 03020A   26166.96992728 -.00000089  00000+0  00000+0 0  9993
2 27811   7.3521  67.8987 0002398  22.7317 152.7686  1.00271057 42833
THURAYA-2               
1 27825U 03026A   26167.65516929  .00000117  00000+0  00000+0 0  9997
2 27825   8.8397  31.9795 0002987  12.1302 140.6840  1.00273943 84341
OPTUS C1                
1 27831U 03028B   26167.50185911 -.00000157  00000+0  00000+0 0  9998
2 27831   6.8885  69.4182 0005462  12.3453 159.4205  1.00272313 53051
USA 170                 
1 27875U 03040A   26166.85739491  .00000119  00000+0  00000+0 0  9992
2 27875  10.4979  47.9622 0001565  61.9528 127.1615  1.00268469 32980
GALAXY 13 (HORIZONS-1)  
1 27954U 03044A   26167.58385394  .00000130  00000+0  00000+0 0  9997
2 27954   1.4177  83.8736 0002266 352.5204 248.6323  1.00270750 46562
YAMAL 202               
1 28089U 03053A   26167.58821823 -.00000086  00000+0  00000+0 0  9990
2 28089   6.3413  70.9445 0003296   1.0729 208.1708  1.00271199 82695
UFO 11 (USA 174)        
1 28117U 03057A   26167.12950378 -.00000112  00000+0  00000+0 0  9994
2 28117   8.9354  33.8336 0002582  59.5687 293.2426  1.00274258 82437
USA 176 (DSP 22)        
1 28158U 04004A   26162.97340249 -.00000286  00000+0  00000+0 0  9992
2 28158  12.0550  26.1076 0001239 290.9902 243.8917  1.00406369 32881
ABS-4 (MOBISAT-1)       
1 28184U 04007A   26167.20650126  .00000034  00000+0  00000+0 0  9993
2 28184   6.0392  72.0202 0005167  11.5578 316.2123  1.00273321 52323
INTELSAT 10-02          
1 28358U 04022A   26166.68656492 -.00000009  00000+0  00000+0 0  9999
2 28358   0.0116 317.0110 0000298 255.8494 297.2601  1.00272857 80541
ANIK F2                 
1 28378U 04027A   26167.62249858 -.00000054  00000+0  00000+0 0  9995
2 28378   3.2861  79.4557 0004021   8.1676 290.2360  1.00271514 41257
AMC-15                  
1 28446U 04041A   26167.59278065 -.00000090  00000+0  00000+0 0  9995
2 28446   0.0174 333.5651 0002125 124.2344 275.4222  1.00271344 79297
NSS-10                  
1 28526U 05003A   26167.42117547 -.00000257  00000+0  00000+0 0  9997
2 28526   6.4481  70.4629 0002623   8.9791 299.4160  1.00270013 53141
INMARSAT 4-F1           
1 28628U 05009A   26167.43496235  .00000028  00000+0  00000+0 0  9996
2 28628   5.1672  42.7609 0002455  43.5671 153.0781  1.00271275 77665
DIRECTV 8               
1 28659U 05019A   26167.59000730 -.00000001  00000+0  00000+0 0  9991
2 28659   0.0168 351.0626 0002843 101.8028 265.3381  1.00271857 77066
GALAXY 28 (G-28)        
1 28702U 05022A   26167.39437556 -.00000204  00000+0  00000+0 0  9997
2 28702   3.2965  78.9439 0002863   6.3526 294.2402  1.00270725 51965
THAICOM 4               
1 28786U 05028A   26167.56597602 -.00000364  00000+0  00000+0 0  9990
2 28786   0.2445  85.8687 0001622 345.5369 156.6832  1.00271917 52248
ANIK F1R                
1 28868U 05036A   26167.49628112 -.00000079  00000+0  00000+0 0  9996
2 28868   4.3114  76.5879 0004020   1.2164 258.3334  1.00270681 46440
SYRACUSE 3A             
1 28885U 05041B   26166.99626822  .00000126  00000+0  00000+0 0  9993
2 28885   4.6397  75.8537 0002957 350.2111 243.5374  1.00274602 75735
INMARSAT 4-F2           
1 28899U 05044A   26167.57065604 -.00000266  00000+0  00000+0 0  9997
2 28899   5.0944  43.7017 0002784  34.7252 175.3347  1.00270373 75517
METEOSAT-9 (MSG-2)      
1 28912U 05049B   26166.83834346  .00000118  00000+0  00000+0 0  9998
2 28912   9.3585  54.1816 0001578 343.5552 213.8225  1.00271428  6988
EUTELSAT 174A           
1 28924U 05052A   26167.57674723  .00000004  00000+0  00000+0 0  9992
2 28924   4.2185  76.5350 0006138   8.2078 201.6833  1.00271073 52322
ECHOSTAR 10             
1 28935U 06003A   26167.37787751 -.00000056  00000+0  00000+0 0  9993
2 28935   0.0171   1.3340 0001412  60.3879 228.7642  1.00270713 74452
SPAINSAT                
1 28945U 06007A   26167.34891117 -.00000218  00000+0  00000+0 0  9997
2 28945   0.5616  86.5351 0004628 357.3409 276.1702  1.00269866 74203
JCSAT-5A                
1 29045U 06010A   26167.60327441 -.00000331  00000+0  00000+0 0  9992
2 29045   1.1085  84.2219 0001918  20.8677 148.9846  1.00269175 73766
ASTRA 1KR               
1 29055U 06012A   26167.11832373  .00000118  00000+0  00000+0 0  9998
2 29055   0.4715  83.1998 0003258 356.7481 246.0121  1.00270914 45683
GALAXY 16 (G-16)        
1 29236U 06023A   26167.59399399 -.00000130  00000+0  00000+0 0  9994
2 29236   0.0064 118.1857 0002628 336.7835 284.7289  1.00280927 72961
