OBJECT_NAME,OBJECT_ID,EPOCH,MEAN_MOTION,ECCENTRICITY,INCLINATION,RA_OF_ASC_NODE,ARG_OF_PERICENTER,MEAN_ANOMALY,EPHEMERIS_TYPE,CLASSIFICATION_TYPE,NORAD_CAT_ID,ELEMENT_SET_NO,REV_AT_EPOCH,BSTAR,MEAN_MOTION_DOT,MEAN_MOTION_DDOT
INTELSAT 906 (IS-906),2002-041A,2026-06-16T04:12:21.902400,1.00272749,.00046067,5.8002,72.9349,6.1806,312.5671,0,U,27513,999,8701,0,.8E-7,0
NIMIQ 2,2002-062A,2026-06-16T09:17:18.983328,1.00271778,.00054263,9.4448,56.9084,23.1127,214.7701,0,U,27632,999,4417,0,-.77E-6,0
USA 167,2003-008A,2026-06-16T09:39:46.030176,1.00272428,.00039089,10.9602,43.4170,311.8473,292.6485,0,U,27691,999,676,0,-.5E-7,0
USA 169 (MILSTAR-2 4),2003-012A,2026-06-16T10:18:58.952736,1.00273031,.010059,12.3485,29.8495,9.1249,172.6098,0,U,27711,999,3294,0,-.257E-5,0
ASIASAT 4,2003-014A,2026-06-16T14:37:10.451136,1.00270399,.000299,4.7027,75.7552,14.3509,181.6021,0,U,27718,999,4529,0,-.227E-5,0
HELLAS-SAT 2,2003-020A,2026-06-15T23:16:41.716992,1.00271057,.00023981,7.3521,67.8987,22.7317,152.7686,0,U,27811,999,4283,0,-.89E-6,0
THURAYA-2,2003-026A,2026-06-16T15:43:26.626656,1.00273943,.00029879,8.8397,31.9795,12.1302,140.6840,0,U,27825,999,8434,0,.117E-5,0
OPTUS C1,2003-028B,2026-06-16T12:02:40.627104,1.00272313,.00054621,6.8885,69.4182,12.3453,159.4205,0,U,27831,999,5305,0,-.157E-5,0
USA 170,2003-040A,2026-06-15T20:34:38.920224,1.00268469,.00015651,10.4979,47.9622,61.9528,127.1615,0,U,27875,999,3298,0,.119E-5,0
GALAXY 13 (HORIZONS-1),2003-044A,2026-06-16T14:00:44.980416,1.00270750,.00022668,1.4177,83.8736,352.5204,248.6323,0,U,27954,999,4656,0,.13E-5,0
YAMAL 202,2003-053A,2026-06-16T14:07:02.055072,1.00271199,.00032962,6.3413,70.9445,1.0729,208.1708,0,U,28089,999,8269,0,-.86E-6,0
UFO 11 (USA 174),2003-057A,2026-06-16T03:06:29.126592,1.00274258,.00025822,8.9354,33.8336,59.5687,293.2426,0,U,28117,999,8243,0,-.112E-5,0
USA 176 (DSP 22),2004-004A,2026-06-11T23:21:41.975136,1.00406369,.0001239,12.0550,26.1076,290.9902,243.8917,0,U,28158,999,3288,0,-.286E-5,0
ABS-4 (MOBISAT-1),2004-007A,2026-06-16T04:57:21.708864,1.00273321,.00051674,6.0392,72.0202,11.5578,316.2123,0,U,28184,999,5232,0,.34E-6,0
INTELSAT 10-02,2004-022A,2026-06-15T16:28:39.209088,1.00272857,.00002983,0.0116,317.0110,255.8494,297.2601,0,U,28358,999,8054,0,-.9E-7,0
ANIK F2,2004-027A,2026-06-16T14:56:23.877312,1.00271514,.00040216,3.2861,79.4557,8.1676,290.2360,0,U,28378,999,4125,0,-.54E-6,0
AMC-15,2004-041A,2026-06-16T14:13:36.248160,1.00271344,.00021258,0.0174,333.5651,124.2344,275.4222,0,U,28446,999,7929,0,-.9E-6,0
NSS-10,2005-003A,2026-06-16T10:06:29.560608,1.00270013,.00026235,6.4481,70.4629,8.9791,299.4160,0,U,28526,999,5314,0,-.257E-5,0
INMARSAT 4-F1,2005-009A,2026-06-16T10:26:20.747040,1.00271275,.00024557,5.1672,42.7609,43.5671,153.0781,0,U,28628,999,7766,0,.28E-6,0
DIRECTV 8,2005-019A,2026-06-16T14:09:36.630720,1.00271857,.00028433,0.0168,351.0626,101.8028,265.3381,0,U,28659,999,7706,0,-.1E-7,0
GALAXY 28 (G-28),2005-022A,2026-06-16T09:27:54.048384,1.00270725,.00028638,3.2965,78.9439,6.3526,294.2402,0,U,28702,999,5196,0,-.204E-5,0
THAICOM 4,2005-028A,2026-06-16T13:35:00.328128,1.00271917,.00016223,0.2445,85.8687,345.5369,156.6832,0,U,28786,999,5224,0,-.364E-5,0
ANIK F1R,2005-036A,2026-06-16T11:54:38.688768,1.00270681,.00040205,4.3114,76.5879,1.2164,258.3334,0,U,28868,999,4644,0,-.79E-6,0
SYRACUSE 3A,2005-041B,2026-06-15T23:54:37.574208,1.00274602,.0002957,4.6397,75.8537,350.2111,243.5374,0,U,28885,999,7573,0,.126E-5,0
INMARSAT 4-F2,2005-044A,2026-06-16T13:41:44.681856,1.00270373,.00027843,5.0944,43.7017,34.7252,175.3347,0,U,28899,999,7551,0,-.266E-5,0
METEOSAT-9 (MSG-2),2005-049B,2026-06-15T20:07:12.874944,1.00271428,.00015787,9.3585,54.1816,343.5552,213.8225,0,U,28912,999,698,0,.118E-5,0
EUTELSAT 174A,2005-052A,2026-06-16T13:50:30.960672,1.00271073,.00061383,4.2185,76.5350,8.2078,201.6833,0,U,28924,999,5232,0,.4E-7,0
ECHOSTAR 10,2006-003A,2026-06-16T09:04:08.616864,1.00270713,.00014126,0.0171,1.3340,60.3879,228.7642,0,U,28935,999,7445,0,-.56E-6,0
SPAINSAT,2006-007A,2026-06-16T08:22:25.925088,1.00269866,.00046282,0.5616,86.5351,357.3409,276.1702,0,U,28945,999,7420,0,-.218E-5,0
JCSAT-5A,2006-010A,2026-06-16T14:28:42.909024,1.00269175,.00019182,1.1085,84.2219,20.8677,148.9846,0,U,29045,999,7376,0,-.331E-5,0
ASTRA 1KR,2006-012A,2026-06-16T02:50:23.170272,1.00270914,.0003258,0.4715,83.1998,356.7481,246.0121,0,U,29055,999,4568,0,.118E-5,0
GALAXY 16 (G-16),2006-023A,2026-06-16T14:15:21.080736,1.00280927,.00026281,0.0064,118.1857,336.7835,284.7289,0,U,29236,999,7296,0,-.13E-5,0
